{
    "links": {
        "self": "http://www.neowsapp.com/rest/v1/neo/3986812?api_key=iIulBulltgU6a56xZRHN4H3l9WmuAYTsLGpBGhQ2"
    },
    "id": "3986812",
    "neo_reference_id": "3986812",
    "name": "(2020 BM2)",
    "designation": "2020 BM2",
    "nasa_jpl_url": "http://ssd.jpl.nasa.gov/sbdb.cgi?sstr=3986812",
    "absolute_magnitude_h": 26.936,
    "estimated_diameter": {
        "kilometers": {
            "estimated_diameter_min": 0.0108982051,
            "estimated_diameter_max": 0.0243691274
        },
        "meters": {
            "estimated_diameter_min": 10.8982050927,
            "estimated_diameter_max": 24.3691274199
        },
        "miles": {
            "estimated_diameter_min": 0.0067718286,
            "estimated_diameter_max": 0.0151422691
        },
        "feet": {
            "estimated_diameter_min": 35.7552671962,
            "estimated_diameter_max": 79.9512080044
        }
    },
    "is_potentially_hazardous_asteroid": false,
    "close_approach_data": [
        {
            "close_approach_date": "2017-04-07",
            "close_approach_date_full": "2017-Apr-07 15:10",
            "epoch_date_close_approach": 1491577800000,
            "relative_velocity": {
                "kilometers_per_second": "6.0409468542",
                "kilometers_per_hour": "21747.408675064",
                "miles_per_hour": "13512.9940181252"
            },
            "miss_distance": {
                "astronomical": "0.4428089829",
                "lunar": "172.2526943481",
                "kilometers": "66243280.658706423",
                "miles": "41161665.9095097174"
            },
            "orbiting_body": "Earth"
        },
        {
            "close_approach_date": "2020-01-05",
            "close_approach_date_full": "2020-Jan-05 04:57",
            "epoch_date_close_approach": 1578200220000,
            "relative_velocity": {
                "kilometers_per_second": "3.7321952261",
                "kilometers_per_hour": "13435.9028140187",
                "miles_per_hour": "8348.5475012996"
            },
            "miss_distance": {
                "astronomical": "0.0430123017",
                "lunar": "16.7317853613",
                "kilometers": "6434548.718117379",
                "miles": "3998243.1724386702"
            },
            "orbiting_body": "Earth"
        },
        {
            "close_approach_date": "2022-08-24",
            "close_approach_date_full": "2022-Aug-24 07:32",
            "epoch_date_close_approach": 1661326320000,
            "relative_velocity": {
                "kilometers_per_second": "6.7156963757",
                "kilometers_per_hour": "24176.5069524529",
                "miles_per_hour": "15022.3412227616"
            },
            "miss_distance": {
                "astronomical": "0.4686972969",
                "lunar": "182.3232484941",
                "kilometers": "70116117.290997603",
                "miles": "43568135.0033608014"
            },
            "orbiting_body": "Earth"
        }
    ],
    "orbital_data": {
        "orbit_id": "3",
        "orbit_determination_date": "2020-02-04 05:38:20",
        "first_observation_date": "2020-01-19",
        "last_observation_date": "2020-02-03",
        "data_arc_in_days": 15,
        "observations_used": 19,
        "orbit_uncertainty": "8",
        "minimum_orbit_intersection": ".0421609",
        "jupiter_tisserand_invariant": "4.870",
        "epoch_osculation": "2458869.5",
        "eccentricity": ".2445820202164668",
        "semi_major_axis": "1.338201763003137",
        "inclination": "3.740265040873175",
        "ascending_node_longitude": "305.3784330842893",
        "orbital_period": "565.4325730641442",
        "perihelion_distance": "1.010901672350592",
        "perihelion_argument": "143.0752615776094",
        "aphelion_distance": "1.665501853655681",
        "perihelion_time": "2458839.725234158465",
        "mean_anomaly": "18.95701842019033",
        "mean_motion": ".6366806886435964",
        "equinox": "J2000",
        "orbit_class": {
            "orbit_class_type": "APO",
            "orbit_class_description": "Near-Earth asteroid orbits which cross the Earth’s orbit similar to that of 1862 Apollo",
            "orbit_class_range": "a (semi-major axis) > 1.0 AU; q (perihelion) < 1.017 AU"
        }
    },
    "is_sentry_object": false
}